# From MPEC 2015-A10
4P/Faye,e,8.0093,193.2027,206.8230,3.826933,0.1316521,0.57794341,301.3946,06/21.0/2020,2000,g  8.0,6.0
# From MPEC 2015-S97
6P/d'Arrest,e,19.5116,138.9329,178.0860,3.498082,0.1506465,0.61257221,291.6384,06/21.0/2020,2000,g  9.0,4.0
# From MPEC 2015-E14
7P/Pons-Winnecke,e,22.3645,93.3805,172.5699,3.415233,0.1561614,0.63854728,306.8924,06/21.0/2020,2000,g  9.0,4.0
# From MPC 75715
8P/Tuttle,e,54.9115,270.2042,207.4930,5.702480,0.0723783,0.82003814,328.6740,06/21.0/2020,2000,g  9.0,4.0
# From MPEC 2019-JE2
9P/Tempel,e,10.4723,68.7348,179.3149,3.147287,0.1765223,0.50950999,250.2428,06/21.0/2020,2000,g  9.0,4.0
# From MPC114607
10P/Tempel,e,12.0398,117.8100,195.5128,3.060752,0.1840611,0.53849433,309.1439,06/21.0/2020,2000,g  5.0,10.0
# From MPEC 2017-L52
11P/Tempel-Swift-LINEAR,e,14.4203,238.9213,167.9269,3.283380,0.1656618,0.57698796,333.7912,06/21.0/2020,2000,g  9.0,4.0
# From  27, 604
12P/Pons-Brooks,e,74.0725,255.7083,199.0474,17.08479,0.0139569,0.95428285,340.4579,06/21.0/2020,2000,g  5.0,6.0
# From  27, 604
13P/Olbers,e,44.6270,85.8460,64.5588,16.67139,0.0144793,0.92972779,338.6945,06/21.0/2020,2000,g  5.0,6.0
# From MPC100283
14P/Wolf,e,27.9020,202.0816,158.9764,4.259176,0.1121284,0.35660010,104.4947,06/21.0/2020,2000,g  5.5,12.0
# From MPC 92276
15P/Finlay,e,6.7976,13.7219,347.8367,3.504147,0.1502556,0.71694580,301.7634,06/21.0/2020,2000,g 12.0,4.0
# From MPC 92276
16P/Brooks,e,3.0100,138.8809,245.1323,3.660696,0.1407209,0.48706409,317.6431,06/21.0/2020,2000,g  7.5,10.0
# From MPC114607
17P/Holmes,e,19.0258,326.6317,24.5016,3.638126,0.1420324,0.42825345,325.3579,06/21.0/2020,2000,g 10.0,6.0
# From MPC 92984
19P/Borrelly,e,29.4373,74.4505,351.8066,3.604826,0.1440050,0.63863463,274.9736,06/21.0/2020,2000,g  4.5,10.0
# From MPC111773
21P/Giacobini-Zinner,e,32.0110,195.3670,172.8460,3.496072,0.1507764,0.71062636,97.9503,06/21.0/2020,2000,g  9.0,6.0
# From MPC 94283
22P/Kopff,e,4.7419,120.8369,162.9577,3.443030,0.1542740,0.54889630,262.0402,06/21.0/2020,2000,g  3.0,10.4
# From MPC 14747
23P/Brorsen-Metcalf,e,19.1385,312.3983,128.8419,16.95547,0.0141169,0.97098047,0.0000,08/12.7906/1989,2000,g 10.0,6.0
# From MPC110085
24P/Schaumasse,e,11.6809,79.3971,57.7383,4.060668,0.1204503,0.70834211,113.9855,06/21.0/2020,2000,g  6.5,14.0
# From MPC 94674
26P/Grigg-Skjellerup,e,22.4448,211.5377,2.1949,3.013890,0.1883706,0.64067198,118.3575,06/21.0/2020,2000,g 12.0,16.0
# From MPC 78188
27P/Crommelin,e,29.1263,250.5780,195.9996,9.190626,0.0353742,0.91794176,115.1250,06/21.0/2020,2000,g 12.0,8.0
# From MPEC 2020-L06
28P/Neujmin,e,14.3111,346.3437,347.4281,6.973470,0.0535218,0.77371733,345.8739,06/21.0/2020,2000,g  8.5,6.0
# From MPEC 2020-L06
29P/Schwassmann-Wachmann,e,9.3669,312.3761,48.2208,6.032755,0.0665167,0.04402171,30.9468,06/21.0/2020,2000,g  4.0,4.0
# From MPC110085
30P/Reinmuth,e,8.4743,118.9223,12.4466,3.714886,0.1376531,0.52136426,141.3499,06/21.0/2020,2000,g  9.5,6.0
# From MPC108597
31P/Schwassmann-Wachmann,e,4.5473,114.1144,18.2825,4.241492,0.1128304,0.19245599,39.6376,06/21.0/2020,2000,g  5.0,8.0
# From MPC 92276
32P/Comas Sola,e,9.9303,57.5108,53.4054,4.497094,0.1033490,0.55765039,214.5013,06/21.0/2020,2000,g  6.5,8.0
# From MPEC 2013-O31
33P/Daniel,e,22.3310,66.3567,20.6282,4.082278,0.1194951,0.45260320,168.0882,06/21.0/2020,2000,g 10.0,12.0
# From  15, 452
35P/Herschel-Rigollet,e,64.713,356.378,29.076,28.5683,0.006455,0.9734587,0.000,12/22.7674/2091,2000,g  9.0,4.0
# From MPC105240
36P/Whipple,e,9.9526,181.8632,200.7714,4.130405,0.1174127,0.26844399,2.3909,06/21.0/2020,2000,g  8.5,6.0
# From MPEC 2018-HA5
37P/Forbes,e,8.9572,314.5622,330.0789,3.459084,0.1532013,0.53414795,119.3003,06/21.0/2020,2000,g 10.5,4.8
# From MPEC 2018-S50
38P/Stephan-Oterma,e,18.3540,77.9948,359.5447,11.25645,0.0260977,0.85894667,15.3482,06/21.0/2020,2000,g  3.5,12.0
# From MPC115887
39P/Oterma,e,1.5612,299.2558,94.9977,7.407587,0.0488865,0.22387713,308.3793,06/21.0/2020,2000,g  7.0,6.0
# From MPC100283
40P/Vaisala,e,11.4701,133.7834,47.4649,4.950518,0.0894804,0.63002173,183.1343,06/21.0/2020,2000,g  5.5,12.0
# From MPC105240
41P/Tuttle-Giacobini-Kresak,e,9.2212,140.9978,62.2644,3.085979,0.1818087,0.66032709,211.9499,06/21.0/2020,2000,g 10.0,16.0
# From MPC 94283
42P/Neujmin,e,3.9890,150.1933,147.1659,4.872890,0.0916272,0.58546687,173.9298,06/21.0/2020,2000,g 13.0,6.0
# From MPC102956
43P/Wolf-Harrington,e,9.3994,244.4638,224.0243,4.305652,0.1103178,0.43922746,153.5012,06/21.0/2020,2000,g  8.0,6.0
# From MPEC 2020-HN5
44P/Reinmuth,e,5.8983,286.4829,58.1254,3.688833,0.1391139,0.42708598,266.5696,06/21.0/2020,2000,g  8.3,6.0
# From MPC103849
45P/Honda-Mrkos-Pajdusakova,e,4.3251,87.7010,327.9609,3.049962,0.1850387,0.81765117,235.3472,06/21.0/2020,2000,g 13.5,8.0
# From MPC114607
46P/Wirtanen,e,11.7439,82.1564,356.3660,3.091834,0.1812925,0.65835378,100.8405,06/21.0/2020,2000,g 14.0,6.0
# From NK 2718
47P/Ashbrook-Jackson,e,13.0340,356.9285,357.6004,4.125179,0.1176359,0.31788097,130.1730,06/21.0/2020,2000,g  9.0,4.0
# From MPEC 2015-M77
48P/Johnson,e,12.2083,110.1268,216.6125,3.500278,0.1505047,0.42734413,102.1258,06/21.0/2020,2000,g  9.0,4.0
# From MPEC 2015-M77
49P/Arend-Rigaux,e,19.0456,118.7982,332.9725,3.569944,0.1461208,0.59865058,103.2947,06/21.0/2020,2000,g  9.0,4.0
# From MPEC 2015-S97
50P/Arend,e,19.0975,355.1584,49.3446,4.089553,0.1191764,0.52852997,190.3644,06/21.0/2020,2000,g  9.5,6.0
# From NK 3013
51P-A/Harrington,e,5.4255,83.6744,269.2392,3.708379,0.1380155,0.54296492,245.0291,06/21.0/2020,2000,g 16.0,8.0
# From NK 3014
51P-A/Harrington,e,5.4248,83.6899,269.1999,3.709401,0.1379585,0.54303717,244.7757,06/21.0/2020,2000,g 10.0,8.0
# From NK 3014
51P-A/Harrington,e,5.4248,83.6899,269.1999,3.709383,0.1379595,0.54303408,244.7789,06/21.0/2020,2000,g 10.0,8.0
# From MPEC 2015-L08
51P-D/Harrington,e,5.4262,83.6799,269.1893,3.708469,0.1380105,0.54297913,245.0245,06/21.0/2020,2000,g 16.0,8.0
# From MPEC 2015-L08
51P-D/Harrington,e,5.4263,83.6788,269.1901,3.708457,0.1380112,0.54297971,245.0296,06/21.0/2020,2000,g 16.0,8.0
# From NK 3013
51P-D/Harrington,e,5.4255,83.6747,269.2389,3.708379,0.1380155,0.54296511,245.0293,06/21.0/2020,2000,g 16.0,8.0
# From NK 3013
51P-D/Harrington,e,5.4255,83.6747,269.2389,3.708379,0.1380155,0.54296524,245.0293,06/21.0/2020,2000,g 16.0,8.0
# From MPC 88330
52P/Harrington-Abell,e,10.2313,336.8380,139.5998,3.862233,0.1298513,0.53974418,298.8032,06/21.0/2020,2000,g 13.5,6.0
# From MPC100283
53P/Van Biesbroeck,e,6.6081,148.8357,134.3984,5.424421,0.0780143,0.55229888,117.9606,06/21.0/2020,2000,g  7.7,4.8
# From MPC 89011
54P/de Vico-Swift-NEAT,e,6.0614,358.8150,1.7623,3.793168,0.1334139,0.42541063,155.0480,06/21.0/2020,2000,g  9.0,4.0
# From MPC 31070
55P/Tempel-Tuttle,e,162.3783,235.4042,172.5407,10.34853,0.0296064,0.90669570,242.0843,06/21.0/2020,2000,g  9.0,4.0
# From MPC101100
56P/Slaughter-Burnham,e,8.1576,345.9817,44.0203,5.072071,0.0862832,0.50678407,123.7039,06/21.0/2020,2000,g  8.5,6.0
# From MPC 98565
57P/du Toit-Neujmin-Delporte,e,2.8502,188.7786,115.2209,3.447046,0.1540045,0.50076182,285.5518,06/21.0/2020,2000,g 12.5,6.0
# From MPEC 2020-HN5
58P/Jackson-Neujmin,e,13.1065,159.0823,200.4589,4.082988,0.1194640,0.66262806,2.9327,06/21.0/2020,2000,g  5.5,10.0
# From MPC111774
59P/Kearns-Kwee,e,9.3414,312.8336,127.6183,4.489544,0.1036098,0.47484739,66.6716,06/21.0/2020,2000,g  7.0,6.0
# From MPEC 2015-M77
60P/Tsuchinshan,e,3.6043,267.5882,216.7538,3.516683,0.1494529,0.53716377,83.3597,06/21.0/2020,2000,g  9.0,4.0
# From MPEC 2015-Q71
61P/Shajn-Schaldach,e,5.9988,162.9876,221.8943,3.684861,0.1393389,0.42379712,240.7723,06/21.0/2020,2000,g  6.0,10.0
# From MPC109147
62P/Tsuchinshan,e,5.9373,79.3173,37.9687,3.314568,0.1633292,0.65133701,150.9651,06/21.0/2020,2000,g  8.0,10.0
# From MPC 84320
63P/Wild,e,19.7377,358.0169,169.1511,5.604666,0.0742813,0.64906032,195.5255,06/21.0/2020,2000,g 10.5,6.0
# From MPC111774
64P/Swift-Gehrels,e,8.9505,300.0031,97.0960,4.455054,0.1048153,0.68757310,62.3739,06/21.0/2020,2000,g  9.5,12.0
# From MPC104795
65P/Gunn,e,9.1830,62.0239,213.7866,3.883998,0.1287614,0.24989614,125.8279,06/21.0/2020,2000,g  5.0,6.0
# From MPC109147
66P/du Toit,e,18.6612,21.8714,257.2962,6.062524,0.0660273,0.78697181,50.4299,06/21.0/2020,2000,g  9.0,4.0
# From MPC 89011
67P/Churyumov-Gerasimenko,e,3.8816,36.7203,21.8821,3.456536,0.1533707,0.65160507,283.5599,06/21.0/2020,2000,g 11.0,4.0
# From MPC 75716
68P/Klemola,e,11.1105,175.0800,153.0717,4.949360,0.0895118,0.63753831,20.1348,06/21.0/2020,2000,g 10.0,4.0
# From MPC114607
69P/Taylor,e,22.0330,104.8316,343.5117,3.889463,0.1284901,0.41304772,59.1981,06/21.0/2020,2000,g  9.5,12.0
# From MPC 92276
70P/Kojima,e,6.5982,119.2672,1.8604,3.675345,0.1398804,0.45336940,290.0234,06/21.0/2020,2000,g 11.0,6.0
# From MPC107051
71P/Clark,e,9.4412,59.4373,209.0148,3.138136,0.1772949,0.49421560,192.6099,06/21.0/2020,2000,g  9.8,6.0
# From MPC 89011
72P/Denning-Fujikawa,e,10.9306,26.6899,346.6697,4.311754,0.1100837,0.81803045,239.9732,06/21.0/2020,2000,g 17.5,10.0
# From MPC106348
73P/Schwassmann-Wachmann,e,11.2341,69.6501,199.4405,3.093069,0.1811839,0.68572114,215.8866,06/21.0/2020,2000,g 11.5,6.0
# From MPC106348
73P-T/Schwassmann-Wachmann,e,11.2363,69.6526,199.4220,3.094630,0.1810469,0.68592423,215.7243,06/21.0/2020,2000,g 11.5,6.0
# From MPC102956
74P/Smirnova-Chernykh,e,6.5978,76.9216,91.4479,4.210442,0.1140808,0.15371878,96.8309,06/21.0/2020,2000,g  5.0,6.0
# From MPC118097
76P/West-Kohoutek-Ikemura,e,30.4567,84.1241,0.0075,3.474231,0.1522005,0.53812456,36.3580,06/21.0/2020,2000,g  8.0,12.0
# From MPC100283
77P/Longmore,e,24.3253,14.7987,196.8701,3.620350,0.1430798,0.35245591,214.6135,06/21.0/2020,2000,g  7.0,8.0
# From MPEC 2016-U66
78P/Gehrels,e,6.2488,210.5351,192.6545,3.739919,0.1362733,0.46172596,60.6902,06/21.0/2020,2000,g  9.0,4.0
# From MPC 94675
79P/du Toit-Hartley,e,3.1480,280.5234,281.8261,2.942774,0.1952400,0.61901579,126.2851,06/21.0/2020,2000,g 16.0,4.0
# From MPEC 2014-P41
